[{"OBJECT_NAME":"STARLINK-37067","OBJECT_ID":"2026-042T","EPOCH":"2026-03-27T18:20:31.065216","MEAN_MOTION":15.80968989,"ECCENTRICITY":0.0001762,"INCLINATION":53.1575,"RA_OF_ASC_NODE":104.0449,"ARG_OF_PERICENTER":76.9842,"MEAN_ANOMALY":283.1377,"EPHEMERIS_TYPE":0,"CLASSIFICATION_TYPE":"U","NORAD_CAT_ID":68086,"ELEMENT_SET_NO":999,"REV_AT_EPOCH":494,"BSTAR":0.0017824,"MEAN_MOTION_DOT":0.00368124,"MEAN_MOTION_DDOT":0},{"OBJECT_NAME":"STARLINK-37062","OBJECT_ID":"2026-042U","EPOCH":"2026-03-27T18:19:26.048352","MEAN_MOTION":15.80975264,"ECCENTRICITY":0.0001889,"INCLINATION":53.1576,"RA_OF_ASC_NODE":104.0397,"ARG_OF_PERICENTER":71.4956,"MEAN_ANOMALY":288.6272,"EPHEMERIS_TYPE":0,"CLASSIFICATION_TYPE":"U","NORAD_CAT_ID":68087,"ELEMENT_SET_NO":999,"REV_AT_EPOCH":494,"BSTAR":0.0019312,"MEAN_MOTION_DOT":0.00400558,"MEAN_MOTION_DDOT":0},{"OBJECT_NAME":"STARLINK-37059","OBJECT_ID":"2026-042V","EPOCH":"2026-03-27T18:18:27.609984","MEAN_MOTION":15.8056136,"ECCENTRICITY":0.0005062,"INCLINATION":53.1571,"RA_OF_ASC_NODE":104.0353,"ARG_OF_PERICENTER":47.7998,"MEAN_ANOMALY":312.3453,"EPHEMERIS_TYPE":0,"CLASSIFICATION_TYPE":"U","NORAD_CAT_ID":68088,"ELEMENT_SET_NO":999,"REV_AT_EPOCH":494,"BSTAR":0.00072174,"MEAN_MOTION_DOT":0.00142149,"MEAN_MOTION_DDOT":0},{"OBJECT_NAME":"STARLINK-37004","OBJECT_ID":"2026-042W","EPOCH":"2026-03-27T20:00:01.999008","MEAN_MOTION":15.75210119,"ECCENTRICITY":9.67e-5,"INCLINATION":53.1591,"RA_OF_ASC_NODE":103.7154,"ARG_OF_PERICENTER":93.1729,"MEAN_ANOMALY":291.2398,"EPHEMERIS_TYPE":0,"CLASSIFICATION_TYPE":"U","NORAD_CAT_ID":68089,"ELEMENT_SET_NO":999,"REV_AT_EPOCH":496,"BSTAR":0.00043334,"MEAN_MOTION_DOT":0.00066223,"MEAN_MOTION_DDOT":0},{"OBJECT_NAME":"STARLINK-36320","OBJECT_ID":"2026-042X","EPOCH":"2026-03-27T03:41:33.349344","MEAN_MOTION":15.75432358,"ECCENTRICITY":0.00027632,"INCLINATION":53.1593,"RA_OF_ASC_NODE":107.3571,"ARG_OF_PERICENTER":139.4736,"MEAN_ANOMALY":220.6491,"EPHEMERIS_TYPE":0,"CLASSIFICATION_TYPE":"U","NORAD_CAT_ID":68090,"ELEMENT_SET_NO":999,"REV_AT_EPOCH":484,"BSTAR":0.002325439,"MEAN_MOTION_DOT":0.00375248,"MEAN_MOTION_DDOT":0},{"OBJECT_NAME":"STARLINK-36324","OBJECT_ID":"2026-042Y","EPOCH":"2026-03-27T16:00:01.999584","MEAN_MOTION":15.7528196,"ECCENTRICITY":0.0001016,"INCLINATION":53.159,"RA_OF_ASC_NODE":104.8665,"ARG_OF_PERICENTER":79.2879,"MEAN_ANOMALY":283.0326,"EPHEMERIS_TYPE":0,"CLASSIFICATION_TYPE":"U","NORAD_CAT_ID":68091,"ELEMENT_SET_NO":999,"REV_AT_EPOCH":493,"BSTAR":-0.00052598,"MEAN_MOTION_DOT":-0.00080651,"MEAN_MOTION_DDOT":0},{"OBJECT_NAME":"STARLINK-36896","OBJECT_ID":"2026-042Z","EPOCH":"2026-03-27T11:11:50.155008","MEAN_MOTION":15.75276808,"ECCENTRICITY":0.0001471,"INCLINATION":53.16,"RA_OF_ASC_NODE":105.7516,"ARG_OF_PERICENTER":99.5875,"MEAN_ANOMALY":260.5312,"EPHEMERIS_TYPE":0,"CLASSIFICATION_TYPE":"U","NORAD_CAT_ID":68092,"ELEMENT_SET_NO":999,"REV_AT_EPOCH":488,"BSTAR":0.0013015,"MEAN_MOTION_DOT":0.00204089,"MEAN_MOTION_DDOT":0},{"OBJECT_NAME":"STARLINK-36251","OBJECT_ID":"2026-042AA","EPOCH":"2026-03-27T18:11:53.053152","MEAN_MOTION":15.80988044,"ECCENTRICITY":0.0003314,"INCLINATION":53.1578,"RA_OF_ASC_NODE":104.004,"ARG_OF_PERICENTER":80.0074,"MEAN_ANOMALY":280.1322,"EPHEMERIS_TYPE":0,"CLASSIFICATION_TYPE":"U","NORAD_CAT_ID":68093,"ELEMENT_SET_NO":999,"REV_AT_EPOCH":493,"BSTAR":0.0020763,"MEAN_MOTION_DOT":0.00432595,"MEAN_MOTION_DDOT":0},{"OBJECT_NAME":"STARLINK-36787","OBJECT_ID":"2026-042AB","EPOCH":"2026-03-27T16:00:01.999584","MEAN_MOTION":15.75263541,"ECCENTRICITY":0.0001085,"INCLINATION":53.1593,"RA_OF_ASC_NODE":104.8129,"ARG_OF_PERICENTER":94.2361,"MEAN_ANOMALY":293.8406,"EPHEMERIS_TYPE":0,"CLASSIFICATION_TYPE":"U","NORAD_CAT_ID":68094,"ELEMENT_SET_NO":999,"REV_AT_EPOCH":493,"BSTAR":-0.00039459,"MEAN_MOTION_DOT":-0.00060756,"MEAN_MOTION_DDOT":0},{"OBJECT_NAME":"STARLINK-36790","OBJECT_ID":"2026-042AC","EPOCH":"2026-03-27T20:00:01.999008","MEAN_MOTION":15.75274241,"ECCENTRICITY":0.0001219,"INCLINATION":53.1594,"RA_OF_ASC_NODE":103.7723,"ARG_OF_PERICENTER":100.0941,"MEAN_ANOMALY":256.6816,"EPHEMERIS_TYPE":0,"CLASSIFICATION_TYPE":"U","NORAD_CAT_ID":68095,"ELEMENT_SET_NO":999,"REV_AT_EPOCH":495,"BSTAR":-0.00038717,"MEAN_MOTION_DOT":-0.00059663,"MEAN_MOTION_DDOT":0},{"OBJECT_NAME":"STARLINK-36328","OBJECT_ID":"2026-042AD","EPOCH":"2026-03-27T12:05:19.595328","MEAN_MOTION":15.78521578,"ECCENTRICITY":9.07e-5,"INCLINATION":53.1583,"RA_OF_ASC_NODE":105.2594,"ARG_OF_PERICENTER":116.3541,"MEAN_ANOMALY":243.7574,"EPHEMERIS_TYPE":0,"CLASSIFICATION_TYPE":"U","NORAD_CAT_ID":68096,"ELEMENT_SET_NO":999,"REV_AT_EPOCH":489,"BSTAR":-0.0049254,"MEAN_MOTION_DOT":-0.00796908,"MEAN_MOTION_DDOT":0},{"OBJECT_NAME":"STARLINK-36853","OBJECT_ID":"2026-042AE","EPOCH":"2026-03-27T18:10:48.142560","MEAN_MOTION":15.80984131,"ECCENTRICITY":0.0003142,"INCLINATION":53.158,"RA_OF_ASC_NODE":103.9995,"ARG_OF_PERICENTER":75.7895,"MEAN_ANOMALY":284.3477,"EPHEMERIS_TYPE":0,"CLASSIFICATION_TYPE":"U","NORAD_CAT_ID":68097,"ELEMENT_SET_NO":999,"REV_AT_EPOCH":493,"BSTAR":0.0019783,"MEAN_MOTION_DOT":0.00411016,"MEAN_MOTION_DDOT":0},{"OBJECT_NAME":"GLOBAL-34","OBJECT_ID":"2026-043A","EPOCH":"2026-03-27T17:35:53.095488","MEAN_MOTION":15.31831597,"ECCENTRICITY":0.0003923,"INCLINATION":42.0227,"RA_OF_ASC_NODE":331.3316,"ARG_OF_PERICENTER":47.3241,"MEAN_ANOMALY":312.7927,"EPHEMERIS_TYPE":0,"CLASSIFICATION_TYPE":"U","NORAD_CAT_ID":68098,"ELEMENT_SET_NO":999,"REV_AT_EPOCH":333,"BSTAR":0.00037117,"MEAN_MOTION_DOT":0.00011422,"MEAN_MOTION_DDOT":0},{"OBJECT_NAME":"STARLINK-37022","OBJECT_ID":"2026-044A","EPOCH":"2026-03-27T21:11:58.886016","MEAN_MOTION":15.75242898,"ECCENTRICITY":0.000129,"INCLINATION":97.2843,"RA_OF_ASC_NODE":47.9132,"ARG_OF_PERICENTER":83.6188,"MEAN_ANOMALY":276.5224,"EPHEMERIS_TYPE":0,"CLASSIFICATION_TYPE":"U","NORAD_CAT_ID":68101,"ELEMENT_SET_NO":999,"REV_AT_EPOCH":434,"BSTAR":0.00096138,"MEAN_MOTION_DOT":0.00146077,"MEAN_MOTION_DDOT":0},{"OBJECT_NAME":"STARLINK-37046","OBJECT_ID":"2026-044B","EPOCH":"2026-03-27T21:10:27.672672","MEAN_MOTION":15.75225771,"ECCENTRICITY":0.0001933,"INCLINATION":97.2842,"RA_OF_ASC_NODE":47.9151,"ARG_OF_PERICENTER":97.7234,"MEAN_ANOMALY":262.4251,"EPHEMERIS_TYPE":0,"CLASSIFICATION_TYPE":"U","NORAD_CAT_ID":68102,"ELEMENT_SET_NO":999,"REV_AT_EPOCH":434,"BSTAR":0.000842,"MEAN_MOTION_DOT":0.00127554,"MEAN_MOTION_DDOT":0},{"OBJECT_NAME":"STARLINK-37018","OBJECT_ID":"2026-044C","EPOCH":"2026-03-27T21:08:25.733760","MEAN_MOTION":15.75223825,"ECCENTRICITY":0.0001715,"INCLINATION":97.2842,"RA_OF_ASC_NODE":47.917,"ARG_OF_PERICENTER":108.4615,"MEAN_ANOMALY":251.6836,"EPHEMERIS_TYPE":0,"CLASSIFICATION_TYPE":"U","NORAD_CAT_ID":68103,"ELEMENT_SET_NO":999,"REV_AT_EPOCH":434,"BSTAR":0.00081307,"MEAN_MOTION_DOT":0.00123089,"MEAN_MOTION_DDOT":0}]
